{"fetched_at":"2026-03-28T16:33:49Z","count":6709,"tles":[{"name":"SSTL S1-4","line1":"1 43618U 18071A   26086.22900601 -.00000873  00000+0 -72762-4 0  9998","line2":"2 43618  97.5154 321.1952 0002136  91.1271 269.0196 14.96156601410682","category":"Other"}]}